[
    {
        "Altitude(m)": 702812.8917776583,
        "Argument of Periapsis(deg)": 0.007973084830638947,
        "Eccentricity": 0.0,
        "Inclination(deg)": 45.0,
        "Latitude(deg)": 17.05470619000838,
        "Longitude(deg)": -137.766644229311,
        "Mean Anomaly(deg)": 24.436851653236566,
        "RAAN(deg)": 304.99247364097926,
        "Satellite Name": "Constellation 1 1343",
        "Satellite Number": 1343,
        "Semi-Major Axis(m)": 7083131.272910544,
        "Time(s)": 133
    },
    {
        "Altitude(m)": 702815.111049651,
        "Argument of Periapsis(deg)": 0.008033032836884352,
        "Eccentricity": 0.0,
        "Inclination(deg)": 45.0,
        "Latitude(deg)": 17.095836814669102,
        "Longitude(deg)": -137.72386118130552,
        "Mean Anomaly(deg)": 24.497552793486452,
        "RAAN(deg)": 304.99241705181373,
        "Satellite Name": "Constellation 1 1343",
        "Satellite Number": 1343,
        "Semi-Major Axis(m)": 7083131.272910544,
        "Time(s)": 134
    },
    {
        "Altitude(m)": 702817.3463557361,
        "Argument of Periapsis(deg)": 0.008092980843129758,
        "Eccentricity": 0.0,
        "Inclination(deg)": 45.0,
        "Latitude(deg)": 17.13695644552818,
        "Longitude(deg)": -137.68105753851665,
        "Mean Anomaly(deg)": 24.558253933736342,
        "RAAN(deg)": 304.99236046264815,
        "Satellite Name": "Constellation 1 1343",
        "Satellite Number": 1343,
        "Semi-Major Axis(m)": 7083131.272910544,
        "Time(s)": 135
    },
    {
        "Altitude(m)": 702819.5976684968,
        "Argument of Periapsis(deg)": 0.008152928849375162,
        "Eccentricity": 0.0,
        "Inclination(deg)": 45.0,
        "Latitude(deg)": 17.178065049775594,
        "Longitude(deg)": -137.6382332448902,
        "Mean Anomaly(deg)": 24.618955073986278,
        "RAAN(deg)": 304.9923038734825,
        "Satellite Name": "Constellation 1 1343",
        "Satellite Number": 1343,
        "Semi-Major Axis(m)": 7083131.272910544,
        "Time(s)": 136
    },
    {
        "Altitude(m)": 702821.8649604466,
        "Argument of Periapsis(deg)": 0.008212876855620568,
        "Eccentricity": 0.0,
        "Inclination(deg)": 45.0,
        "Latitude(deg)": 17.219162594560725,
        "Longitude(deg)": -137.59538824434094,
        "Mean Anomaly(deg)": 24.679656214236168,
        "RAAN(deg)": 304.992247284317,
        "Satellite Name": "Constellation 1 1343",
        "Satellite Number": 1343,
        "Semi-Major Axis(m)": 7083131.272910544,
        "Time(s)": 137
    },
    {
        "Altitude(m)": 702824.1482040293,
        "Argument of Periapsis(deg)": 0.008272824861865974,
        "Eccentricity": 0.0,
        "Inclination(deg)": 45.0,
        "Latitude(deg)": 17.26024904699233,
        "Longitude(deg)": -137.55252248075274,
        "Mean Anomaly(deg)": 24.74035735448605,
        "RAAN(deg)": 304.9921906951514,
        "Satellite Name": "Constellation 1 1343",
        "Satellite Number": 1343,
        "Semi-Major Axis(m)": 7083131.272910544,
        "Time(s)": 138
    },
    {
        "Altitude(m)": 702826.4473716378,
        "Argument of Periapsis(deg)": 0.00833277286811138,
        "Eccentricity": 0.0,
        "Inclination(deg)": 45.0,
        "Latitude(deg)": 17.301324374138296,
        "Longitude(deg)": -137.50963589797837,
        "Mean Anomaly(deg)": 24.801058494735987,
        "RAAN(deg)": 304.9921341059859,
        "Satellite Name": "Constellation 1 1343",
        "Satellite Number": 1343,
        "Semi-Major Axis(m)": 7083131.272910544,
        "Time(s)": 139
    },
    {
        "Altitude(m)": 702828.7624355936,
        "Argument of Periapsis(deg)": 0.008392720874356788,
        "Eccentricity": 0.0,
        "Inclination(deg)": 45.0,
        "Latitude(deg)": 17.34238854302565,
        "Longitude(deg)": -137.46672843983953,
        "Mean Anomaly(deg)": 24.861759634985873,
        "RAAN(deg)": 304.9920775168203,
        "Satellite Name": "Constellation 1 1343",
        "Satellite Number": 1343,
        "Semi-Major Axis(m)": 7083131.272910544,
        "Time(s)": 140
    },
    {
        "Altitude(m)": 702831.0933681541,
        "Argument of Periapsis(deg)": 0.008452668880602192,
        "Eccentricity": 0.0,
        "Inclination(deg)": 45.0,
        "Latitude(deg)": 17.38344152064059,
        "Longitude(deg)": -137.42380021822402,
        "Mean Anomaly(deg)": 24.922460775235763,
        "RAAN(deg)": 304.9920209276548,
        "Satellite Name": "Constellation 1 1343",
        "Satellite Number": 1343,
        "Semi-Major Axis(m)": 7083131.272910544,
        "Time(s)": 141
    },
    {
        "Altitude(m)": 702833.4401415144,
        "Argument of Periapsis(deg)": 0.008512616886847598,
        "Eccentricity": 0.0,
        "Inclination(deg)": 45.0,
        "Latitude(deg)": 17.42448327392744,
        "Longitude(deg)": -137.38085084069763,
        "Mean Anomaly(deg)": 24.98316191548565,
        "RAAN(deg)": 304.99196433848914,
        "Satellite Name": "Constellation 1 1343",
        "Satellite Number": 1343,
        "Semi-Major Axis(m)": 7083131.272910544,
        "Time(s)": 142
    },
    {
        "Altitude(m)": 702835.8027278144,
        "Argument of Periapsis(deg)": 0.008572564893093004,
        "Eccentricity": 0.0,
        "Inclination(deg)": 45.0,
        "Latitude(deg)": 17.465513769790018,
        "Longitude(deg)": -137.33788041908613,
        "Mean Anomaly(deg)": 25.043863055735585,
        "RAAN(deg)": 304.99190774932356,
        "Satellite Name": "Constellation 1 1343",
        "Satellite Number": 1343,
        "Semi-Major Axis(m)": 7083131.272910544,
        "Time(s)": 143
    },
    {
        "Altitude(m)": 702838.1810991172,
        "Argument of Periapsis(deg)": 0.008632512899338408,
        "Eccentricity": 0.0,
        "Inclination(deg)": 45.0,
        "Latitude(deg)": 17.506532975090487,
        "Longitude(deg)": -137.2948888970874,
        "Mean Anomaly(deg)": 25.104564195985468,
        "RAAN(deg)": 304.99185116015803,
        "Satellite Name": "Constellation 1 1343",
        "Satellite Number": 1343,
        "Semi-Major Axis(m)": 7083131.272910544,
        "Time(s)": 144
    },
    {
        "Altitude(m)": 702840.5752274339,
        "Argument of Periapsis(deg)": 0.008692460905583814,
        "Eccentricity": 0.0,
        "Inclination(deg)": 45.0,
        "Latitude(deg)": 17.54754085664956,
        "Longitude(deg)": -137.2518762183683,
        "Mean Anomaly(deg)": 25.165265336235358,
        "RAAN(deg)": 304.99179457099245,
        "Satellite Name": "Constellation 1 1343",
        "Satellite Number": 1343,
        "Semi-Major Axis(m)": 7083131.272910544,
        "Time(s)": 145
    },
    {
        "Altitude(m)": 702842.9850847111,
        "Argument of Periapsis(deg)": 0.00875240891182922,
        "Eccentricity": 0.0,
        "Inclination(deg)": 45.0,
        "Latitude(deg)": 17.5885373812463,
        "Longitude(deg)": -137.20884232656488,
        "Mean Anomaly(deg)": 25.225966476485294,
        "RAAN(deg)": 304.9917379818269,
        "Satellite Name": "Constellation 1 1343",
        "Satellite Number": 1343,
        "Semi-Major Axis(m)": 7083131.272910544,
        "Time(s)": 146
    },
    {
        "Altitude(m)": 702845.4106428255,
        "Argument of Periapsis(deg)": 0.008812356918074627,
        "Eccentricity": 0.0,
        "Inclination(deg)": 45.0,
        "Latitude(deg)": 17.6295225156181,
        "Longitude(deg)": -137.16578716528218,
        "Mean Anomaly(deg)": 25.28666761673518,
        "RAAN(deg)": 304.9916813926613,
        "Satellite Name": "Constellation 1 1343",
        "Satellite Number": 1343,
        "Semi-Major Axis(m)": 7083131.272910544,
        "Time(s)": 147
    },
    {
        "Altitude(m)": 702847.8518736087,
        "Argument of Periapsis(deg)": 0.008872304924320031,
        "Eccentricity": 0.0,
        "Inclination(deg)": 45.0,
        "Latitude(deg)": 17.67049622646074,
        "Longitude(deg)": -137.12271084619138,
        "Mean Anomaly(deg)": 25.34736875698507,
        "RAAN(deg)": 304.9916248034957,
        "Satellite Name": "Constellation 1 1343",
        "Satellite Number": 1343,
        "Semi-Major Axis(m)": 7083131.272910544,
        "Time(s)": 148
    },
    {
        "Altitude(m)": 702850.3087488102,
        "Argument of Periapsis(deg)": 0.008932252930565437,
        "Eccentricity": 0.0,
        "Inclination(deg)": 45.0,
        "Latitude(deg)": 17.711458480427304,
        "Longitude(deg)": -137.0796129766418,
        "Mean Anomaly(deg)": 25.408069897234956,
        "RAAN(deg)": 304.9915682143302,
        "Satellite Name": "Constellation 1 1343",
        "Satellite Number": 1343,
        "Semi-Major Axis(m)": 7083131.272910544,
        "Time(s)": 149
    },
    {
        "Altitude(m)": 702852.7812401294,
        "Argument of Periapsis(deg)": 0.008992200936810843,
        "Eccentricity": 0.0,
        "Inclination(deg)": 45.0,
        "Latitude(deg)": 17.752409244129574,
        "Longitude(deg)": -137.0364936682429,
        "Mean Anomaly(deg)": 25.468771037484892,
        "RAAN(deg)": 304.9915116251646,
        "Satellite Name": "Constellation 1 1343",
        "Satellite Number": 1343,
        "Semi-Major Axis(m)": 7083131.272910544,
        "Time(s)": 150
    },
    {
        "Altitude(m)": 702855.2693192001,
        "Argument of Periapsis(deg)": 0.009052148943056249,
        "Eccentricity": 0.0,
        "Inclination(deg)": 45.0,
        "Latitude(deg)": 17.793348484136892,
        "Longitude(deg)": -136.99335286447618,
        "Mean Anomaly(deg)": 25.529472177734775,
        "RAAN(deg)": 304.991455035999,
        "Satellite Name": "Constellation 1 1343",
        "Satellite Number": 1343,
        "Semi-Major Axis(m)": 7083131.272910544,
        "Time(s)": 151
    }
]